{"fetched_at":"2026-07-17T06:37:47.892Z","source":"https://celestrak.org/NORAD/elements/gp.php?GROUP=iridium-NEXT&FORMAT=JSON","constellation":"iridium","records":[{"OBJECT_NAME":"IRIDIUM 116","OBJECT_ID":"2017-083C","EPOCH":"2026-07-16T09:04:39.078912","CLASSIFICATION_TYPE":"U","MEAN_MOTION":14.34217961,"ECCENTRICITY":0.000249,"INCLINATION":86.3985,"RA_OF_ASC_NODE":309.7989,"ARG_OF_PERICENTER":98.0794,"MEAN_ANOMALY":262.0685,"EPHEMERIS_TYPE":0,"NORAD_CAT_ID":43072,"ELEMENT_SET_NO":999,"REV_AT_EPOCH":44835,"BSTAR":0.000036226,"MEAN_MOTION_DOT":0.00000121,"MEAN_MOTION_DDOT":0},{"OBJECT_NAME":"IRIDIUM 130","OBJECT_ID":"2017-083D","EPOCH":"2026-07-16T13:20:23.379360","CLASSIFICATION_TYPE":"U","MEAN_MOTION":14.34218258,"ECCENTRICITY":0.0002294,"INCLINATION":86.3994,"RA_OF_ASC_NODE":310.0029,"ARG_OF_PERICENTER":100.7313,"MEAN_ANOMALY":259.4141,"EPHEMERIS_TYPE":0,"NORAD_CAT_ID":43073,"ELEMENT_SET_NO":999,"REV_AT_EPOCH":44832,"BSTAR":0.000042023,"MEAN_MOTION_DOT":0.00000137,"MEAN_MOTION_DDOT":0},{"OBJECT_NAME":"IRIDIUM 151","OBJECT_ID":"2017-083E","EPOCH":"2026-07-16T09:22:55.208928","CLASSIFICATION_TYPE":"U","MEAN_MOTION":14.34218201,"ECCENTRICITY":0.0002273,"INCLINATION":86.3987,"RA_OF_ASC_NODE":309.8521,"ARG_OF_PERICENTER":95.0949,"MEAN_ANOMALY":265.0506,"EPHEMERIS_TYPE":0,"NORAD_CAT_ID":43074,"ELEMENT_SET_NO":999,"REV_AT_EPOCH":44832,"BSTAR":0.000032991,"MEAN_MOTION_DOT":0.00000112,"MEAN_MOTION_DDOT":0},{"OBJECT_NAME":"IRIDIUM 134","OBJECT_ID":"2017-083F","EPOCH":"2026-07-16T08:37:15.201408","CLASSIFICATION_TYPE":"U","MEAN_MOTION":14.34217929,"ECCENTRICITY":0.0002227,"INCLINATION":86.3988,"RA_OF_ASC_NODE":309.8736,"ARG_OF_PERICENTER":95.2844,"MEAN_ANOMALY":264.8606,"EPHEMERIS_TYPE":0,"NORAD_CAT_ID":43075,"ELEMENT_SET_NO":999,"REV_AT_EPOCH":44828,"BSTAR":0.000013464,"MEAN_MOTION_DOT":5.7e-7,"MEAN_MOTION_DDOT":0},{"OBJECT_NAME":"IRIDIUM 137","OBJECT_ID":"2017-083G","EPOCH":"2026-07-16T17:17:51.273312","CLASSIFICATION_TYPE":"U","MEAN_MOTION":14.3421811,"ECCENTRICITY":0.0002712,"INCLINATION":86.3992,"RA_OF_ASC_NODE":309.8163,"ARG_OF_PERICENTER":93.0422,"MEAN_ANOMALY":267.1084,"EPHEMERIS_TYPE":0,"NORAD_CAT_ID":43076,"ELEMENT_SET_NO":999,"REV_AT_EPOCH":44840,"BSTAR":0.000017776,"MEAN_MOTION_DOT":7e-7,"MEAN_MOTION_DDOT":0},{"OBJECT_NAME":"IRIDIUM 141","OBJECT_ID":"2017-083H","EPOCH":"2026-07-16T13:47:47.148000","CLASSIFICATION_TYPE":"U","MEAN_MOTION":14.34217872,"ECCENTRICITY":0.0002184,"INCLINATION":86.3985,"RA_OF_ASC_NODE":309.706,"ARG_OF_PERICENTER":93.5068,"MEAN_ANOMALY":266.6378,"EPHEMERIS_TYPE":0,"NORAD_CAT_ID":43077,"ELEMENT_SET_NO":999,"REV_AT_EPOCH":44838,"BSTAR":0.000022774,"MEAN_MOTION_DOT":8.4e-7,"MEAN_MOTION_DDOT":0},{"OBJECT_NAME":"IRIDIUM 153","OBJECT_ID":"2017-083J","EPOCH":"2026-07-16T10:58:27.397056","CLASSIFICATION_TYPE":"U","MEAN_MOTION":14.34217866,"ECCENTRICITY":0.0002126,"INCLINATION":86.3959,"RA_OF_ASC_NODE":278.2342,"ARG_OF_PERICENTER":94.9699,"MEAN_ANOMALY":265.174,"EPHEMERIS_TYPE":0,"NORAD_CAT_ID":43078,"ELEMENT_SET_NO":999,"REV_AT_EPOCH":44947,"BSTAR":0.000014816,"MEAN_MOTION_DOT":6.1e-7,"MEAN_MOTION_DDOT":0},{"OBJECT_NAME":"IRIDIUM 131","OBJECT_ID":"2017-083K","EPOCH":"2026-07-16T08:28:07.161024","CLASSIFICATION_TYPE":"U","MEAN_MOTION":14.34218322,"ECCENTRICITY":0.0002226,"INCLINATION":86.399,"RA_OF_ASC_NODE":309.9867,"ARG_OF_PERICENTER":94.3683,"MEAN_ANOMALY":265.7768,"EPHEMERIS_TYPE":0,"NORAD_CAT_ID":43079,"ELEMENT_SET_NO":999,"REV_AT_EPOCH":44828,"BSTAR":0.000024205,"MEAN_MOTION_DOT":8.8e-7,"MEAN_MOTION_DDOT":0},{"OBJECT_NAME":"IRIDIUM 144","OBJECT_ID":"2018-030A","EPOCH":"2026-07-16T06:06:11.405952","CLASSIFICATION_TYPE":"U","MEAN_MOTION":14.34218065,"ECCENTRICITY":0.0002392,"INCLINATION":86.3956,"RA_OF_ASC_NODE":278.2475,"ARG_OF_PERICENTER":96.4668,"MEAN_ANOMALY":263.68,"EPHEMERIS_TYPE":0,"NORAD_CAT_ID":43249,"ELEMENT_SET_NO":999,"REV_AT_EPOCH":43430,"BSTAR":0.000017699,"MEAN_MOTION_DOT":6.9e-7,"MEAN_MOTION_DDOT":0},{"OBJECT_NAME":"IRIDIUM 149","OBJECT_ID":"2018-030B","EPOCH":"2026-07-16T14:37:39.421056","CLASSIFICATION_TYPE":"U","MEAN_MOTION":14.34218095,"ECCENTRICITY":0.0002251,"INCLINATION":86.3956,"RA_OF_ASC_NODE":278.0656,"ARG_OF_PERICENTER":93.3087,"MEAN_ANOMALY":266.8366,"EPHEMERIS_TYPE":0,"NORAD_CAT_ID":43250,"ELEMENT_SET_NO":999,"REV_AT_EPOCH":43437,"BSTAR":0.0000238,"MEAN_MOTION_DOT":8.6e-7,"MEAN_MOTION_DDOT":0},{"OBJECT_NAME":"IRIDIUM 157","OBJECT_ID":"2018-030C","EPOCH":"2026-07-16T15:05:03.594912","CLASSIFICATION_TYPE":"U","MEAN_MOTION":14.34218381,"ECCENTRICITY":0.0002266,"INCLINATION":86.3959,"RA_OF_ASC_NODE":278.1117,"ARG_OF_PERICENTER":94.1885,"MEAN_ANOMALY":265.957,"EPHEMERIS_TYPE":0,"NORAD_CAT_ID":43251,"ELEMENT_SET_NO":999,"REV_AT_EPOCH":43435,"BSTAR":0.000043287,"MEAN_MOTION_DOT":0.00000141,"MEAN_MOTION_DDOT":0},{"OBJECT_NAME":"IRIDIUM 140","OBJECT_ID":"2018-030D","EPOCH":"2026-07-16T15:32:27.641760","CLASSIFICATION_TYPE":"U","MEAN_MOTION":14.34217991,"ECCENTRICITY":0.0002245,"INCLINATION":86.3957,"RA_OF_ASC_NODE":278.1162,"ARG_OF_PERICENTER":95.8058,"MEAN_ANOMALY":264.3394,"EPHEMERIS_TYPE":0,"NORAD_CAT_ID":43252,"ELEMENT_SET_NO":999,"REV_AT_EPOCH":43441,"BSTAR":0.000044286,"MEAN_MOTION_DOT":0.00000144,"MEAN_MOTION_DDOT":0},{"OBJECT_NAME":"IRIDIUM 145","OBJECT_ID":"2018-030E","EPOCH":"2026-07-16T15:14:11.420160","CLASSIFICATION_TYPE":"U","MEAN_MOTION":14.34217566,"ECCENTRICITY":0.0002537,"INCLINATION":86.3955,"RA_OF_ASC_NODE":278.0936,"ARG_OF_PERICENTER":99.4157,"MEAN_ANOMALY":260.7326,"EPHEMERIS_TYPE":0,"NORAD_CAT_ID":43253,"ELEMENT_SET_NO":999,"REV_AT_EPOCH":43434,"BSTAR":0.000030541,"MEAN_MOTION_DOT":0.00000105,"MEAN_MOTION_DDOT":0},{"OBJECT_NAME":"IRIDIUM 146","OBJECT_ID":"2018-030F","EPOCH":"2026-07-16T14:46:47.452800","CLASSIFICATION_TYPE":"U","MEAN_MOTION":14.34217578,"ECCENTRICITY":0.0002389,"INCLINATION":86.3959,"RA_OF_ASC_NODE":278.1138,"ARG_OF_PERICENTER":96.0786,"MEAN_ANOMALY":264.0682,"EPHEMERIS_TYPE":0,"NORAD_CAT_ID":43254,"ELEMENT_SET_NO":999,"REV_AT_EPOCH":43435,"BSTAR":0.000015277,"MEAN_MOTION_DOT":6.3e-7,"MEAN_MOTION_DDOT":0},{"OBJECT_NAME":"IRIDIUM 148","OBJECT_ID":"2018-030G","EPOCH":"2026-07-16T15:41:35.655360","CLASSIFICATION_TYPE":"U","MEAN_MOTION":14.34218363,"ECCENTRICITY":0.000234,"INCLINATION":86.3959,"RA_OF_ASC_NODE":278.1412,"ARG_OF_PERICENTER":93.1971,"MEAN_ANOMALY":266.9493,"EPHEMERIS_TYPE":0,"NORAD_CAT_ID":43255,"ELEMENT_SET_NO":999,"REV_AT_EPOCH":43439,"BSTAR":0.000043774,"MEAN_MOTION_DOT":0.00000142,"MEAN_MOTION_DDOT":0},{"OBJECT_NAME":"IRIDIUM 142","OBJECT_ID":"2018-030H","EPOCH":"2026-07-16T14:55:55.456896","CLASSIFICATION_TYPE":"U","MEAN_MOTION":14.34218016,"ECCENTRICITY":0.0002461,"INCLINATION":86.3954,"RA_OF_ASC_NODE":278.0424,"ARG_OF_PERICENTER":96.4639,"MEAN_ANOMALY":263.6837,"EPHEMERIS_TYPE":0,"NORAD_CAT_ID":43256,"ELEMENT_SET_NO":999,"REV_AT_EPOCH":43435,"BSTAR":0.00001868,"MEAN_MOTION_DOT":7.2e-7,"MEAN_MOTION_DDOT":0}]}
